CCSDS_OMM_VERS = 2.0
CREATION_DATE  = 
ORIGINATOR     = 

OBJECT_NAME    = AQUA
OBJECT_ID      = 2002-022A
CENTER_NAME    = EARTH
REF_FRAME      = TEME
TIME_SYSTEM    = UTC
MEAN_ELEMENT_THEORY = SGP/SGP4

EPOCH          = 2026-04-05T13:57:13.008384
MEAN_MOTION    = 14.62043668
ECCENTRICITY   = .00014376
INCLINATION    = 98.4221
RA_OF_ASC_NODE = 63.4457
ARG_OF_PERICENTER = 114.6970
MEAN_ANOMALY   = 307.0738

EPHEMERIS_TYPE = 0
CLASSIFICATION_TYPE = U
NORAD_CAT_ID   = 27424
ELEMENT_SET_NO = 999
REV_AT_EPOCH   = 27266
BSTAR          = .30312361E-3
MEAN_MOTION_DOT = .1472E-4
MEAN_MOTION_DDOT = 0

CCSDS_OMM_VERS = 2.0
CREATION_DATE  = 
ORIGINATOR     = 

OBJECT_NAME    = CZ-4B R/B
OBJECT_ID      = 2002-024C
CENTER_NAME    = EARTH
REF_FRAME      = TEME
TIME_SYSTEM    = UTC
MEAN_ELEMENT_THEORY = SGP/SGP4

EPOCH          = 2026-04-05T09:00:36.795168
MEAN_MOTION    = 14.14552807
ECCENTRICITY   = .00492208
INCLINATION    = 98.8780
RA_OF_ASC_NODE = 148.6406
ARG_OF_PERICENTER = 307.9484
MEAN_ANOMALY   = 62.1973

EPHEMERIS_TYPE = 0
CLASSIFICATION_TYPE = U
NORAD_CAT_ID   = 27432
ELEMENT_SET_NO = 999
REV_AT_EPOCH   = 23301
BSTAR          = .56883437E-4
MEAN_MOTION_DOT = .66E-6
MEAN_MOTION_DDOT = 0

CCSDS_OMM_VERS = 2.0
CREATION_DATE  = 
ORIGINATOR     = 

OBJECT_NAME    = MIDORI II (ADEOS-II)
OBJECT_ID      = 2002-056A
CENTER_NAME    = EARTH
REF_FRAME      = TEME
TIME_SYSTEM    = UTC
MEAN_ELEMENT_THEORY = SGP/SGP4

EPOCH          = 2026-04-05T11:24:27.876960
MEAN_MOTION    = 14.29307155
ECCENTRICITY   = .00003391
INCLINATION    = 98.7816
RA_OF_ASC_NODE = 54.1460
ARG_OF_PERICENTER = 22.9980
MEAN_ANOMALY   = 337.1217

EPHEMERIS_TYPE = 0
CLASSIFICATION_TYPE = U
NORAD_CAT_ID   = 27597
ELEMENT_SET_NO = 999
REV_AT_EPOCH   = 21412
BSTAR          = .19859971E-3
MEAN_MOTION_DOT = .46E-5
MEAN_MOTION_DDOT = 0

CCSDS_OMM_VERS = 2.0
CREATION_DATE  = 
ORIGINATOR     = 

OBJECT_NAME    = H-2A R/B
OBJECT_ID      = 2002-056E
CENTER_NAME    = EARTH
REF_FRAME      = TEME
TIME_SYSTEM    = UTC
MEAN_ELEMENT_THEORY = SGP/SGP4

EPOCH          = 2026-04-05T12:21:53.284320
MEAN_MOTION    = 14.33780925
ECCENTRICITY   = .00714151
INCLINATION    = 98.3250
RA_OF_ASC_NODE = 54.8673
ARG_OF_PERICENTER = 81.7810
MEAN_ANOMALY   = 30.2100

EPHEMERIS_TYPE = 0
CLASSIFICATION_TYPE = U
NORAD_CAT_ID   = 27601
ELEMENT_SET_NO = 999
REV_AT_EPOCH   = 21795
BSTAR          = .1770237E-3
MEAN_MOTION_DOT = .465E-5
MEAN_MOTION_DDOT = 0

CCSDS_OMM_VERS = 2.0
CREATION_DATE  = 
ORIGINATOR     = 

OBJECT_NAME    = CZ-4B R/B
OBJECT_ID      = 2003-049C
CENTER_NAME    = EARTH
REF_FRAME      = TEME
TIME_SYSTEM    = UTC
MEAN_ELEMENT_THEORY = SGP/SGP4

EPOCH          = 2026-04-05T13:07:09.731424
MEAN_MOTION    = 14.55045925
ECCENTRICITY   = .00487311
INCLINATION    = 98.6899
RA_OF_ASC_NODE = 91.5099
ARG_OF_PERICENTER = 148.5823
MEAN_ANOMALY   = 211.8300

EPHEMERIS_TYPE = 0
CLASSIFICATION_TYPE = U
NORAD_CAT_ID   = 28059
ELEMENT_SET_NO = 999
REV_AT_EPOCH   = 19050
BSTAR          = .12705161E-3
MEAN_MOTION_DOT = .505E-5
MEAN_MOTION_DDOT = 0

CCSDS_OMM_VERS = 2.0
CREATION_DATE  = 
ORIGINATOR     = 

OBJECT_NAME    = CZ-2C R/B
OBJECT_ID      = 2004-012C
CENTER_NAME    = EARTH
REF_FRAME      = TEME
TIME_SYSTEM    = UTC
MEAN_ELEMENT_THEORY = SGP/SGP4

EPOCH          = 2026-04-05T10:39:28.647648
MEAN_MOTION    = 15.68019060
ECCENTRICITY   = .00136668
INCLINATION    = 97.7162
RA_OF_ASC_NODE = 163.3316
ARG_OF_PERICENTER = 205.5588
MEAN_ANOMALY   = 154.4998

EPHEMERIS_TYPE = 0
CLASSIFICATION_TYPE = U
NORAD_CAT_ID   = 28222
ELEMENT_SET_NO = 999
REV_AT_EPOCH   = 20846
BSTAR          = .68228816E-3
MEAN_MOTION_DOT = .76305E-3
MEAN_MOTION_DDOT = 0

CCSDS_OMM_VERS = 2.0
CREATION_DATE  = 
ORIGINATOR     = 

OBJECT_NAME    = SL-16 R/B
OBJECT_ID      = 2004-021B
CENTER_NAME    = EARTH
REF_FRAME      = TEME
TIME_SYSTEM    = UTC
MEAN_ELEMENT_THEORY = SGP/SGP4

EPOCH          = 2026-04-05T09:33:53.322048
MEAN_MOTION    = 14.14600686
ECCENTRICITY   = .00054904
INCLINATION    = 71.0013
RA_OF_ASC_NODE = 176.4441
ARG_OF_PERICENTER = 336.0251
MEAN_ANOMALY   = 24.0615

EPHEMERIS_TYPE = 0
CLASSIFICATION_TYPE = U
NORAD_CAT_ID   = 28353
ELEMENT_SET_NO = 999
REV_AT_EPOCH   = 12661
BSTAR          = .220196E-3
MEAN_MOTION_DOT = .376E-5
MEAN_MOTION_DDOT = 0

CCSDS_OMM_VERS = 2.0
CREATION_DATE  = 
ORIGINATOR     = 

OBJECT_NAME    = CZ-4B R/B
OBJECT_ID      = 2004-035C
CENTER_NAME    = EARTH
REF_FRAME      = TEME
TIME_SYSTEM    = UTC
MEAN_ELEMENT_THEORY = SGP/SGP4

EPOCH          = 2026-04-05T14:31:34.070016
MEAN_MOTION    = 15.29569509
ECCENTRICITY   = .00303849
INCLINATION    = 97.3449
RA_OF_ASC_NODE = 129.5274
ARG_OF_PERICENTER = 230.8310
MEAN_ANOMALY   = 129.0231

EPHEMERIS_TYPE = 0
CLASSIFICATION_TYPE = U
NORAD_CAT_ID   = 28415
ELEMENT_SET_NO = 999
REV_AT_EPOCH   = 18402
BSTAR          = .31287071E-3
MEAN_MOTION_DOT = .9016E-4
MEAN_MOTION_DDOT = 0

CCSDS_OMM_VERS = 2.0
CREATION_DATE  = 
ORIGINATOR     = 

OBJECT_NAME    = CZ-2C R/B
OBJECT_ID      = 2004-046B
CENTER_NAME    = EARTH
REF_FRAME      = TEME
TIME_SYSTEM    = UTC
MEAN_ELEMENT_THEORY = SGP/SGP4

EPOCH          = 2026-04-05T11:32:40.071840
MEAN_MOTION    = 14.27003267
ECCENTRICITY   = .01406045
INCLINATION    = 98.1975
RA_OF_ASC_NODE = 8.7955
ARG_OF_PERICENTER = 75.7676
MEAN_ANOMALY   = 285.9077

EPHEMERIS_TYPE = 0
CLASSIFICATION_TYPE = U
NORAD_CAT_ID   = 28480
ELEMENT_SET_NO = 999
REV_AT_EPOCH   = 11232
BSTAR          = .11426727E-3
MEAN_MOTION_DOT = .269E-5
MEAN_MOTION_DDOT = 0

CCSDS_OMM_VERS = 2.0
CREATION_DATE  = 
ORIGINATOR     = 

OBJECT_NAME    = ARIANE 5 R/B
OBJECT_ID      = 2004-049H
CENTER_NAME    = EARTH
REF_FRAME      = TEME
TIME_SYSTEM    = UTC
MEAN_ELEMENT_THEORY = SGP/SGP4

EPOCH          = 2026-04-05T10:40:36.043968
MEAN_MOTION    = 14.85320748
ECCENTRICITY   = .00828136
INCLINATION    = 98.2666
RA_OF_ASC_NODE = 264.9111
ARG_OF_PERICENTER = 264.2866
MEAN_ANOMALY   = 94.8901

EPHEMERIS_TYPE = 0
CLASSIFICATION_TYPE = U
NORAD_CAT_ID   = 28499
ELEMENT_SET_NO = 999
REV_AT_EPOCH   = 14976
BSTAR          = .15095114E-3
MEAN_MOTION_DOT = .1313E-4
MEAN_MOTION_DDOT = 0

CCSDS_OMM_VERS = 2.0
CREATION_DATE  = 
ORIGINATOR     = 

OBJECT_NAME    = CZ-2D R/B
OBJECT_ID      = 2005-024B
CENTER_NAME    = EARTH
REF_FRAME      = TEME
TIME_SYSTEM    = UTC
MEAN_ELEMENT_THEORY = SGP/SGP4

EPOCH          = 2026-04-05T13:29:31.836192
MEAN_MOTION    = 15.62803961
ECCENTRICITY   = .00018345
INCLINATION    = 97.3565
RA_OF_ASC_NODE = 111.7419
ARG_OF_PERICENTER = 270.7702
MEAN_ANOMALY   = 89.3346

EPHEMERIS_TYPE = 0
CLASSIFICATION_TYPE = U
NORAD_CAT_ID   = 28738
ELEMENT_SET_NO = 999
REV_AT_EPOCH   = 14397
BSTAR          = .57455242E-3
MEAN_MOTION_DOT = .51811E-3
MEAN_MOTION_DDOT = 0

CCSDS_OMM_VERS = 2.0
CREATION_DATE  = 
ORIGINATOR     = 

OBJECT_NAME    = ALOS (DAICHI)
OBJECT_ID      = 2006-002A
CENTER_NAME    = EARTH
REF_FRAME      = TEME
TIME_SYSTEM    = UTC
MEAN_ELEMENT_THEORY = SGP/SGP4

EPOCH          = 2026-04-05T14:19:18.604704
MEAN_MOTION    = 14.69899743
ECCENTRICITY   = .00011749
INCLINATION    = 98.1264
RA_OF_ASC_NODE = 51.4267
ARG_OF_PERICENTER = 116.0242
MEAN_ANOMALY   = 244.1085

EPHEMERIS_TYPE = 0
CLASSIFICATION_TYPE = U
NORAD_CAT_ID   = 28931
ELEMENT_SET_NO = 999
REV_AT_EPOCH   = 7743
BSTAR          = .33762327E-3
MEAN_MOTION_DOT = .197E-4
MEAN_MOTION_DDOT = 0

